{"spkid": "20873893", "covariance": {"epoch": "2459510.5", "labels": ["e", "q", "tp", "node", "peri", "i"], "data": [["3.580907837829599E-17", "-7.024061862316147E-17", "1.928169120971514E-15", "7.231857292447104E-16", "1.251615551982745E-14", "7.217392132898313E-16"], ["-7.024061862316147E-17", "1.887500792799522E-16", "-1.084970881692717E-13", "-3.054256809307583E-15", "-4.631857889278718E-14", "7.607275227405619E-17"], ["1.928169120971514E-15", "-1.084970881692717E-13", "2.263084588433826E-10", "4.047691280592895E-12", "5.797310996204842E-11", "-2.894859678059587E-12"], ["7.231857292447104E-16", "-3.054256809307583E-15", "4.047691280592895E-12", "1.745707249246629E-11", "-1.559015481848946E-11", "-5.500585349074634E-12"], ["1.251615551982745E-14", "-4.631857889278718E-14", "5.797310996204842E-11", "-1.559015481848946E-11", "4.516242969605048E-11", "5.195964785615117E-12"], ["7.217392132898313E-16", "7.607275227405619E-17", "-2.894859678059587E-12", "-5.500585349074634E-12", "5.195964785615117E-12", "9.28667964819326E-12"]], "elements": [{"title": "eccentricity", "value": ".517562951375841", "units": null, "name": "e", "sigma": 5.98406871436951e-09, "label": "e"}, {"label": "q", "units": "au", "title": "perihelion distance", "value": "1.027165528588898", "sigma": 1.37386345493267e-08, "name": "q"}, {"sigma": 1.50435520686898e-05, "name": "tp", "title": "time of perihelion passage", "value": "2458979.351131783696", "units": "TDB", "label": "tp"}, {"label": "node", "title": "longitude of the ascending node", "value": "77.81861400984752", "units": "deg", "sigma": 4.17816616381712e-06, "name": "om"}, {"sigma": 6.7202998218867e-06, "name": "w", "units": "deg", "value": "188.8711361967974", "title": "argument of perihelion", "label": "peri"}, {"label": "i", "sigma": 3.04740539610227e-06, "name": "i", "units": "deg", "title": "inclination", "value": "11.70890740287634"}]}, "elements": [{"label": "e", "name": "e", "sigma": "6.6078E-9", "value": ".519704059136104", "title": "eccentricity", "units": null}, {"label": "a", "sigma": "1.5173E-8", "name": "a", "units": "au", "value": "2.132153138957673", "title": "semi-major axis"}, {"label": "q", "sigma": "1.5267E-8", "name": "q", "value": "1.024064497941585", "title": "perihelion distance", "units": "au"}, {"name": "i", "sigma": "3.0533E-6", "value": "11.68422150978965", "title": "inclination; angle with respect to x-y ecliptic plane", "units": "deg", "label": "i"}, {"label": "node", "name": "om", "sigma": "4.1741E-6", "title": "longitude of the ascending node", "value": "77.71004380922473", "units": "deg"}, {"label": "peri", "units": "deg", "title": "argument of perihelion", "value": "189.3061980348948", "sigma": "6.6259E-6", "name": "w"}, {"name": "ma", "sigma": "3.1704E-6", "units": "deg", "title": "mean anomaly", "value": "342.8201187478405", "label": "M"}, {"name": "tp", "sigma": "1.055E-5", "title": "time of perihelion passage", "value": "2461254.767982323605", "units": "TDB", "label": "tp"}, {"label": "period", "sigma": "1.2139E-5", "name": "per", "units": "d", "title": "sidereal orbital period", "value": "1137.171634061335"}, {"label": "n", "units": "deg/d", "value": ".3165749032222017", "title": "mean motion", "sigma": "3.3793E-9", "name": "n"}, {"title": "aphelion distance", "value": "3.240241779973761", "units": "au", "name": "ad", "sigma": "2.3059E-8", "label": "Q"}], "epoch": "2461200.5"}